[{"OBJECT_NAME":"TYVAK-0173","OBJECT_ID":"2021-059P","EPOCH":"2026-03-09T20:34:33.037248","MEAN_MOTION":14.81501003,"ECCENTRICITY":0.0009326,"INCLINATION":96.0076,"RA_OF_ASC_NODE":169.9257,"ARG_OF_PERICENTER":18.4576,"MEAN_ANOMALY":341.6978,"EPHEMERIS_TYPE":0,"CLASSIFICATION_TYPE":"U","NORAD_CAT_ID":48892,"ELEMENT_SET_NO":999,"REV_AT_EPOCH":25353,"BSTAR":0.00038359729,"MEAN_MOTION_DOT":2.977e-5,"MEAN_MOTION_DDOT":0},{"OBJECT_NAME":"CZ-6A DEB","OBJECT_ID":"2022-151ABY","EPOCH":"2026-03-09T10:11:37.732992","MEAN_MOTION":14.5624545,"ECCENTRICITY":0.0144503,"INCLINATION":98.5823,"RA_OF_ASC_NODE":130.0785,"ARG_OF_PERICENTER":132.7772,"MEAN_ANOMALY":228.5685,"EPHEMERIS_TYPE":0,"CLASSIFICATION_TYPE":"U","NORAD_CAT_ID":56256,"ELEMENT_SET_NO":999,"REV_AT_EPOCH":15744,"BSTAR":0.00063810293,"MEAN_MOTION_DOT":3.198e-5,"MEAN_MOTION_DDOT":0}]
